STARLINK-31614          
1 59328U 24057J   26068.33500575 -.00000739  00000+0 -17321-4 0  9993
2 59328  43.0033 189.1823 0001080 252.0232 108.0502 15.27573229109783
FLOCK 4G-15             
1 62678U 25009BX  26068.71779869  .00012647  00000+0  47575-3 0  9991
2 62678  97.4054 151.1927 0003699 316.8208  43.2740 15.27266411121358
