[{"OBJECT_NAME":"STARLINK-31614","OBJECT_ID":"2024-057J","EPOCH":"2026-03-09T08:02:24.496800","MEAN_MOTION":15.27573229,"ECCENTRICITY":0.00010808,"INCLINATION":43.0033,"RA_OF_ASC_NODE":189.1823,"ARG_OF_PERICENTER":252.0232,"MEAN_ANOMALY":108.0502,"EPHEMERIS_TYPE":0,"CLASSIFICATION_TYPE":"U","NORAD_CAT_ID":59328,"ELEMENT_SET_NO":999,"REV_AT_EPOCH":10978,"BSTAR":-1.7321222e-5,"MEAN_MOTION_DOT":-7.39e-6,"MEAN_MOTION_DDOT":0},{"OBJECT_NAME":"FLOCK 4G-15","OBJECT_ID":"2025-009BX","EPOCH":"2026-03-09T17:13:37.807680","MEAN_MOTION":15.27266411,"ECCENTRICITY":0.00036988,"INCLINATION":97.4054,"RA_OF_ASC_NODE":151.1927,"ARG_OF_PERICENTER":316.8208,"MEAN_ANOMALY":43.274,"EPHEMERIS_TYPE":0,"CLASSIFICATION_TYPE":"U","NORAD_CAT_ID":62678,"ELEMENT_SET_NO":999,"REV_AT_EPOCH":12135,"BSTAR":0.00047574812,"MEAN_MOTION_DOT":0.00012647,"MEAN_MOTION_DDOT":0}]
